COSMOS 2493 (SKRL-756 1)
1 39490U 13078A   26068.88109627  .00005252  00000+0  40276-3 0  9992
2 39490  82.4165 358.3033 0011855 214.7485 145.2966 15.01584319663059
STARLINK-5569           
1 55379U 23013BA  26068.02534234 -.00000255  00000+0 -37916-5 0  9997
2 55379  43.0042 316.5729 0001362 264.2114  95.8573 15.02537671171462
